NORAD_CAT_ID,OBJECT_NAME,OBJECT_TYPE,EPOCH,MEAN_MOTION,ECCENTRICITY,INCLINATION,RA_OF_ASC_NODE,ARG_OF_PERICENTER,MEAN_ANOMALY,BSTAR,MEAN_MOTION_DOT,MEAN_MOTION_DDOT,TLE_LINE0,TLE_LINE1,TLE_LINE2,SEMIMAJOR_AXIS,PERIOD,APOGEE,PERIGEE,DECAYED
53294.0,STARLINK-4146,PAYLOAD,2024-06-19 13:11:15,15.08838729,0.00015,53.2187,113.7888,89.8029,270.3135,5.434e-05,5.77e-06,0.0,0 STARLINK-4146,1 53294U 22086BE  24171.54949043  .00000577  00000-0  54340-4 0  9993,2 53294  53.2187 113.7888 0001500  89.8029 270.3135 15.08838729106345,6917.884,95.438,540.787,538.712,0.0
53294.0,STARLINK-4146,PAYLOAD,2024-06-19 19:32:48,15.08835128,0.0001565,53.2191,112.6005,91.4061,268.711,7.5825e-05,9.19e-06,0.0,0 STARLINK-4146,1 53294U 22086BE  24171.81445295  .00000919  00000-0  75825-4 0  9994,2 53294  53.2191 112.6005 0001565  91.4061 268.7110 15.08835128106585,6917.895,95.438,540.843,538.678,0.0
53294.0,STARLINK-4146,PAYLOAD,2024-06-20 03:29:44,15.08832509,0.0001489,53.2185,111.112,81.2806,278.8355,3.5807e-05,2.82e-06,0.0,0 STARLINK-4146,1 53294U 22086BE  24172.14565700  .00000282  00000-0  35807-4 0  9994,2 53294  53.2185 111.1120 0001489  81.2806 278.8355 15.08832509106436,6917.903,95.438,540.798,538.738,0.0
53294.0,STARLINK-4146,PAYLOAD,2024-06-20 19:23:35,15.08839598,0.0001366,53.2176,108.1394,89.531,270.5839,0.00012408,1.687e-05,0.0,0 STARLINK-4146,1 53294U 22086BE  24172.80804930  .00001687  00000-0  12408-3 0  9999,2 53294  53.2176 108.1394 0001366  89.5310 270.5839 15.08839598106734,6917.882,95.438,540.692,538.802,0.0
53294.0,STARLINK-4146,PAYLOAD,2024-06-21 04:55:54,15.08841059,0.0001315,53.2175,106.3539,84.196,275.9182,7.7182e-05,9.41e-06,0.0,0 STARLINK-4146,1 53294U 22086BE  24173.20549088  .00000941  00000-0  77182-4 0  9997,2 53294  53.2175 106.3539 0001315  84.1960 275.9182 15.08841059106599,6917.877,95.437,540.652,538.832,0.0
53294.0,STARLINK-4146,PAYLOAD,2024-06-22 01:35:55,15.08836501,0.000133,53.2176,102.4867,87.323,272.7914,-1.7113e-06,-3.15e-06,0.0,0 STARLINK-4146,1 53294U 22086BE  24174.06661755 -.00000315  00000-0 -17113-5 0  9994,2 53294  53.2176 102.4867 0001330  87.3230 272.7914 15.08836501106722,6917.891,95.438,540.676,538.836,0.0
53294.0,STARLINK-4146,PAYLOAD,2024-06-22 04:46:41,15.08838563,0.0001338,53.2175,101.8917,88.2035,271.911,1.2849e-05,-8.3e-07,0.0,0 STARLINK-4146,1 53294U 22086BE  24174.19909590 -.00000083  00000-0  12849-4 0  9991,2 53294  53.2175 101.8917 0001338  88.2035 271.9110 15.08838563106944,6917.885,95.438,540.675,538.824,0.0
53294.0,STARLINK-4146,PAYLOAD,2024-06-22 19:05:09,15.08842263,0.0001338,53.2178,99.2154,88.6345,271.4801,4.0525e-05,3.57e-06,0.0,0 STARLINK-4146,1 53294U 22086BE  24174.79525272  .00000357  00000-0  40525-4 0  9993,2 53294  53.2178  99.2154 0001338  88.6345 271.4801 15.08842263106830,6917.873,95.437,540.664,538.813,0.0
53294.0,STARLINK-4146,PAYLOAD,2024-06-22 22:15:56,15.08843198,0.0001345,53.2177,98.621,88.0265,272.0881,5.0068e-05,5.09e-06,0.0,0 STARLINK-4146,1 53294U 22086BE  24174.92773153  .00000509  00000-0  50068-4 0  9993,2 53294  53.2177  98.6210 0001345  88.0265 272.0881 15.08843198107056,6917.871,95.437,540.666,538.805,0.0
53294.0,STARLINK-4146,PAYLOAD,2024-06-23 01:26:42,15.08843646,0.0001342,53.2177,98.0262,87.8193,272.2953,5.2703e-05,5.51e-06,0.0,0 STARLINK-4146,1 53294U 22086BE  24175.06021096  .00000551  00000-0  52703-4 0  9996,2 53294  53.2177  98.0262 0001342  87.8193 272.2953 15.08843646107073,6917.869,95.437,540.663,538.806,0.0
53294.0,STARLINK-4146,PAYLOAD,2024-06-23 22:06:43,15.08840952,0.0001279,53.2179,94.1612,87.2476,272.8663,5.0091e-05,5.09e-06,0.0,0 STARLINK-4146,1 53294U 22086BE  24175.92133187  .00000509  00000-0  50091-4 0  9997,2 53294  53.2179  94.1612 0001279  87.2476 272.8663 15.08840952107204,6917.877,95.437,540.627,538.858,0.0
53294.0,STARLINK-4146,PAYLOAD,2024-06-24 04:28:15,15.08843999,0.0001304,53.2174,92.9705,83.3166,276.7975,8.2067e-05,1.019e-05,0.0,0 STARLINK-4146,1 53294U 22086BE  24176.18628859  .00001019  00000-0  82067-4 0  9996,2 53294  53.2174  92.9705 0001304  83.3166 276.7975 15.08843999107045,6917.868,95.437,540.635,538.831,0.0
53294.0,STARLINK-4146,PAYLOAD,2024-06-24 21:57:30,15.08839531,0.000136,53.217,89.6984,90.9448,269.17,-1.4465e-05,-5.18e-06,0.0,0 STARLINK-4146,1 53294U 22086BE  24176.91493386 -.00000518  00000-0 -14465-4 0  9994,2 53294  53.2170  89.6984 0001360  90.9448 269.1700 15.08839531107355,6917.882,95.438,540.688,538.806,0.0
53294.0,STARLINK-4146,PAYLOAD,2024-06-24 23:32:53,15.08838408,0.000135,53.2175,89.4009,98.2169,261.8977,-2.8018e-05,-7.34e-06,0.0,0 STARLINK-4146,1 53294U 22086BE  24176.98117461 -.00000734  00000-0 -28018-4 0  9997,2 53294  53.2175  89.4009 0001350  98.2169 261.8977 15.08838408107162,6917.885,95.438,540.684,538.816,0.0
53294.0,STARLINK-4146,PAYLOAD,2024-06-25 21:48:17,15.08839127,0.0001352,53.218,85.237,100.7227,259.3917,-2.473e-06,-3.27e-06,0.0,0 STARLINK-4146,1 53294U 22086BE  24177.90853384 -.00000327  00000-0 -24730-5 0  9997,2 53294  53.2180  85.2370 0001352 100.7227 259.3917 15.08839127107502,6917.883,95.438,540.683,538.813,0.0
53294.0,STARLINK-4146,PAYLOAD,2024-06-25 23:23:40,15.08839548,0.000133,53.2177,84.9397,98.6244,261.4899,1.7889e-06,-2.59e-06,0.0,0 STARLINK-4146,1 53294U 22086BE  24177.97477348 -.00000259  00000-0  17889-5 0  9996,2 53294  53.2177  84.9397 0001330  98.6244 261.4899 15.08839548107514,6917.882,95.438,540.667,538.827,0.0
53294.0,STARLINK-4146,PAYLOAD,2024-06-27 00:49:50,15.08835108,0.0001141,53.2167,80.1833,77.1884,282.9236,3.7793e-05,3.14e-06,0.0,0 STARLINK-4146,1 53294U 22086BE  24179.03461793  .00000314  00000-0  37793-4 0  9998,2 53294  53.2167  80.1833 0001141  77.1884 282.9236 15.08835108107474,6917.895,95.438,540.55,538.971,0.0
53294.0,STARLINK-4146,PAYLOAD,2024-06-27 21:29:52,15.08828953,0.0001261,53.218,76.3224,86.3641,273.7495,-5.4057e-05,-1.148e-05,0.0,0 STARLINK-4146,1 53294U 22086BE  24179.89574899 -.00001148  00000-0 -54057-4 0  9994,2 53294  53.2180  76.3224 0001261  86.3641 273.7495 15.08828953107808,6917.914,95.438,540.652,538.907,0.0
53294.0,STARLINK-4146,PAYLOAD,2024-06-28 10:12:55,15.0885519,8.74e-05,53.2156,73.938,70.3352,289.7734,8.3793e-05,1.047e-05,0.0,0 STARLINK-4146,1 53294U 22086BE  24180.42564479  .00001047  00000-0  83793-4 0  9993,2 53294  53.2156  73.9380 0000874  70.3352 289.7734 15.08855190107680,6917.834,95.437,540.304,539.094,0.0
53294.0,STARLINK-4146,PAYLOAD,2024-06-28 21:20:38,15.08843831,0.0001278,53.2176,71.8535,80.8558,279.2579,7.1448e-05,8.5e-06,0.0,0 STARLINK-4146,1 53294U 22086BE  24180.88933348  .00000850  00000-0  71448-4 0  9993,2 53294  53.2176  71.8535 0001278  80.8558 279.2579 15.08843831107752,6917.869,95.437,540.618,538.85,0.0
53294.0,STARLINK-4146,PAYLOAD,2024-06-28 22:56:01,15.08845366,8.87e-05,53.2141,71.563,106.7647,253.3442,7.7451e-05,9.45e-06,0.0,0 STARLINK-4146,1 53294U 22086BE  24180.95557126  .00000945  00000-0  77451-4 0  9992,2 53294  53.2141  71.5630 0000887 106.7647 253.3442 15.08845366107969,6917.864,95.437,540.343,539.115,0.0
53294.0,STARLINK-4146,PAYLOAD,2024-06-29 22:46:49,15.08829434,0.0001103,53.2173,67.1042,98.3952,261.7165,-8.4377e-05,-1.63e-05,0.0,0 STARLINK-4146,1 53294U 22086BE  24181.94918921 -.00001630  00000-0 -84377-4 0  9995,2 53294  53.2173  67.1042 0001103  98.3952 261.7165 15.08829434108110,6917.913,95.438,540.541,539.015,0.0
53294.0,STARLINK-4146,PAYLOAD,2024-06-30 09:54:31,15.08835164,0.0001037,53.2173,65.0231,94.9667,265.1444,-4.9783e-05,-1.08e-05,0.0,0 STARLINK-4146,1 53294U 22086BE  24182.41286620 -.00001080  00000-0 -49783-4 0  9993,2 53294  53.2173  65.0231 0001037  94.9667 265.1444 15.08835164107987,6917.895,95.438,540.478,539.043,0.0
53294.0,STARLINK-4146,PAYLOAD,2024-06-30 21:02:13,15.08840908,0.0001039,53.2179,62.9426,80.5828,279.5282,5.1291e-05,5.29e-06,0.0,0 STARLINK-4146,1 53294U 22086BE  24182.87653974  .00000529  00000-0  51291-4 0  9995,2 53294  53.2179  62.9426 0001039  80.5828 279.5282 15.08840908108057,6917.878,95.437,540.461,539.024,0.0
53294.0,STARLINK-4146,PAYLOAD,2024-06-30 22:37:35,15.08845411,0.0001104,53.2186,62.6424,96.0089,264.1029,7.4582e-05,9e-06,0.0,0 STARLINK-4146,1 53294U 22086BE  24182.94277557  .00000900  00000-0  74582-4 0  9993,2 53294  53.2186  62.6424 0001104  96.0089 264.1029 15.08845411108260,6917.864,95.437,540.493,538.965,0.0
53294.0,STARLINK-4146,PAYLOAD,2024-07-01 20:53:00,15.08829372,0.0001258,53.2183,58.4785,109.4708,250.642,0.00011097,1.478e-05,0.0,0 STARLINK-4146,1 53294U 22086BE  24183.87014448  .00001478  00000-0  11097-3 0  9996,2 53294  53.2183  58.4785 0001258 109.4708 250.6420 15.08829372108204,6917.913,95.438,540.648,538.908,0.0
53294.0,STARLINK-4146,PAYLOAD,2024-07-01 22:28:23,15.08830866,9.84e-05,53.2178,58.1832,91.0699,269.0405,7.5723e-05,9.17e-06,0.0,0 STARLINK-4146,1 53294U 22086BE  24183.93638560  .00000917  00000-0  75723-4 0  9994,2 53294  53.2178  58.1832 0000984  91.0699 269.0405 15.08830866108418,6917.908,95.438,540.454,539.093,0.0
53294.0,STARLINK-4146,PAYLOAD,2024-07-02 01:39:09,15.08833664,0.0001104,53.2187,57.5856,95.2388,264.873,0.0001056,1.393e-05,0.0,0 STARLINK-4146,1 53294U 22086BE  24184.06886304  .00001393  00000-0  10560-3 0  9996,2 53294  53.2187  57.5856 0001104  95.2388 264.8730 15.08833664108438,6917.9,95.438,540.528,539.001,0.0
53294.0,STARLINK-4146,PAYLOAD,2024-07-02 22:19:10,15.08839035,0.0001012,53.2173,53.7179,94.668,265.4428,-4.0642e-05,-9.34e-06,0.0,0 STARLINK-4146,1 53294U 22086BE  24184.92998725 -.00000934  00000-0 -40642-4 0  9999,2 53294  53.2173  53.7179 0001012  94.6680 265.4428 15.08839035108568,6917.883,95.438,540.448,539.048,0.0
53294.0,STARLINK-4146,PAYLOAD,2024-07-03 22:09:57,15.08834734,9.81e-05,53.217,49.2605,81.9349,278.1754,8.4716e-05,1.061e-05,0.0,0 STARLINK-4146,1 53294U 22086BE  24185.92358756  .00001061  00000-0  84716-4 0  9994,2 53294  53.2170  49.2605 0000981  81.9349 278.1754 15.08834734108715,6917.896,95.438,540.44,539.083,0.0
